{"type": "FeatureCollection", "features": [ {"type": "Feature", "properties": {"norad_id": 66527, "name": "STARLINK-35935", "group": "last-30-days", "lat": -32.74994106436678, "lon": 70.2283639255927, "alt_km": 346.6157781342199, "timestamp": "2025-12-02T15:49:05.949363+00:00", "meta": {"OBJECT_NAME": "STARLINK-35935", "OBJECT_ID": "2025-265M", "EPOCH": "2025-12-02T06:00:02.999808", "MEAN_MOTION": 15.75039754, "ECCENTRICITY": 0.00015786, "INCLINATION": 42.9992, "RA_OF_ASC_NODE": 116.364, "ARG_OF_PERICENTER": 262.2099, "MEAN_ANOMALY": 243.0436, "EPHEMERIS_TYPE": 0, "CLASSIFICATION_TYPE": "U", "NORAD_CAT_ID": 66527, "ELEMENT_SET_NO": 999, "REV_AT_EPOCH": 330, "BSTAR": -5.9720794e-05, "MEAN_MOTION_DOT": -9.641e-05, "MEAN_MOTION_DDOT": 0}, "tle": {"line1": "1 66527U 25265M   25336.25003472 -.00009641  00000+0 -59721-4 0  9997", "line2": "2 66527  42.9992 116.3640 0001578 262.2099 243.0436 15.75039754  3309"}}, "geometry": {"type": "Point", "coordinates": [70.2283639255927, -32.74994106436678]}}, {"type": "Feature", "properties": {"norad_id": 66528, "name": "STARLINK-35928", "group": "last-30-days", "lat": -31.789195231503165, "lon": 72.18508641744617, "alt_km": 346.52377079907455, "timestamp": "2025-12-02T15:49:05.949374+00:00", "meta": {"OBJECT_NAME": "STARLINK-35928", "OBJECT_ID": "2025-265N", "EPOCH": "2025-12-02T06:00:02.999808", "MEAN_MOTION": 15.75045759, "ECCENTRICITY": 0.0001621, "INCLINATION": 42.9993, "RA_OF_ASC_NODE": 116.3589, "ARG_OF_PERICENTER": 265.0461, "MEAN_ANOMALY": 242.1216, "EPHEMERIS_TYPE": 0, "CLASSIFICATION_TYPE": "U", "NORAD_CAT_ID": 66528, "ELEMENT_SET_NO": 999, "REV_AT_EPOCH": 330, "BSTAR": -0.00010244184, "MEAN_MOTION_DOT": -0.00016188, "MEAN_MOTION_DDOT": 0}, "tle": {"line1": "1 66528U 25265N   25336.25003472 -.00016188  00000+0 -10244-3 0  9998", "line2": "2 66528  42.9993 116.3589 0001621 265.0461 242.1216 15.75045759  3304"}}, "geometry": {"type": "Point", "coordinates": [72.18508641744617, -31.789195231503165]}}, {"type": "Feature", "properties": {"norad_id": 66529, "name": "STARLINK-35933", "group": "last-30-days", "lat": -30.79681918866452, "lon": 74.1050819710096, "alt_km": 346.4584216616031, "timestamp": "2025-12-02T15:49:05.949384+00:00", "meta": {"OBJECT_NAME": "STARLINK-35933", "OBJECT_ID": "2025-265P", "EPOCH": "2025-12-02T06:00:02.999808", "MEAN_MOTION": 15.75042966, "ECCENTRICITY": 0.00015926, "INCLINATION": 42.9994, "RA_OF_ASC_NODE": 116.3539, "ARG_OF_PERICENTER": 269.6909, "MEAN_ANOMALY": 239.4066, "EPHEMERIS_TYPE": 0, "CLASSIFICATION_TYPE": "U", "NORAD_CAT_ID": 66529, "ELEMENT_SET_NO": 999, "REV_AT_EPOCH": 330, "BSTAR": -0.00011844644, "MEAN_MOTION_DOT": -0.00018635, "MEAN_MOTION_DDOT": 0}, "tle": {"line1": "1 66529U 25265P   25336.25003472 -.00018635  00000+0 -11845-3 0  9996", "line2": "2 66529  42.9994 116.3539 0001592 269.6909 239.4066 15.75042966  3304"}}, "geometry": {"type": "Point", "coordinates": [74.1050819710096, -30.79681918866452]}}, {"type": "Feature", "properties": {"norad_id": 66530, "name": "STARLINK-35961", "group": "last-30-days", "lat": -29.78116228168805, "lon": 75.97704337624964, "alt_km": 346.3619026429715, "timestamp": "2025-12-02T15:49:05.949396+00:00", "meta": {"OBJECT_NAME": "STARLINK-35961", "OBJECT_ID": "2025-265Q", "EPOCH": "2025-12-02T06:00:02.999808", "MEAN_MOTION": 15.75022972, "ECCENTRICITY": 0.00015818, "INCLINATION": 42.9994, "RA_OF_ASC_NODE": 116.3492, "ARG_OF_PERICENTER": 269.2329, "MEAN_ANOMALY": 241.7749, "EPHEMERIS_TYPE": 0, "CLASSIFICATION_TYPE": "U", "NORAD_CAT_ID": 66530, "ELEMENT_SET_NO": 999, "REV_AT_EPOCH": 330, "BSTAR": 0.00024266641, "MEAN_MOTION_DOT": 0.00036935, "MEAN_MOTION_DDOT": 0}, "tle": {"line1": "1 66530U 25265Q   25336.25003472  .00036935  00000+0  24267-3 0  9991", "line2": "2 66530  42.9994 116.3492 0001581 269.2329 241.7749 15.75022972  3303"}}, "geometry": {"type": "Point", "coordinates": [75.97704337624964, -29.78116228168805]}}, {"type": "Feature", "properties": {"norad_id": 66531, "name": "STARLINK-35960", "group": "last-30-days", "lat": -28.739354939721213, "lon": 77.81107689154761, "alt_km": 346.3731046440762, "timestamp": "2025-12-02T15:49:05.949407+00:00", "meta": {"OBJECT_NAME": "STARLINK-35960", "OBJECT_ID": "2025-265R", "EPOCH": "2025-12-02T06:00:02.999808", "MEAN_MOTION": 15.75031123, "ECCENTRICITY": 0.00016501, "INCLINATION": 42.9996, "RA_OF_ASC_NODE": 116.3441, "ARG_OF_PERICENTER": 264.3977, "MEAN_ANOMALY": 248.5234, "EPHEMERIS_TYPE": 0, "CLASSIFICATION_TYPE": "U", "NORAD_CAT_ID": 66531, "ELEMENT_SET_NO": 999, "REV_AT_EPOCH": 330, "BSTAR": 0.00010884917, "MEAN_MOTION_DOT": 0.00016269, "MEAN_MOTION_DDOT": 0}, "tle": {"line1": "1 66531U 25265R   25336.25003472  .00016269  00000+0  10885-3 0  9991", "line2": "2 66531  42.9996 116.3441 0001650 264.3977 248.5234 15.75031123  3304"}}, "geometry": {"type": "Point", "coordinates": [77.81107689154761, -28.739354939721213]}}, {"type": "Feature", "properties": {"norad_id": 66532, "name": "STARLINK-35914", "group": "last-30-days", "lat": -27.666600783686512, "lon": 79.61884098113022, "alt_km": 346.3362025380593, "timestamp": "2025-12-02T15:49:05.949419+00:00", "meta": {"OBJECT_NAME": "STARLINK-35914", "OBJECT_ID": "2025-265S", "EPOCH": "2025-12-02T06:00:02.999808", "MEAN_MOTION": 15.75068254, "ECCENTRICITY": 0.00017546, "INCLINATION": 42.9992, "RA_OF_ASC_NODE": 116.3395, "ARG_OF_PERICENTER": 265.1326, "MEAN_ANOMALY": 249.7039, "EPHEMERIS_TYPE": 0, "CLASSIFICATION_TYPE": "U", "NORAD_CAT_ID": 66532, "ELEMENT_SET_NO": 999, "REV_AT_EPOCH": 330, "BSTAR": -0.00038366092, "MEAN_MOTION_DOT": -0.00059077, "MEAN_MOTION_DDOT": 0}, "tle": {"line1": "1 66532U 25265S   25336.25003472 -.00059077  00000+0 -38366-3 0  9992", "line2": "2 66532  42.9992 116.3395 0001754 265.1326 249.7039 15.75068254  3302"}}, "geometry": {"type": "Point", "coordinates": [79.61884098113022, -27.666600783686512]}}, {"type": "Feature", "properties": {"norad_id": 66533, "name": "STARLINK-35707", "group": "last-30-days", "lat": -26.578756183665934, "lon": 81.37895645182783, "alt_km": 346.72871819787633, "timestamp": "2025-12-02T15:49:05.949429+00:00", "meta": {"OBJECT_NAME": "STARLINK-35707", "OBJECT_ID": "2025-265T", "EPOCH": "2025-12-02T06:00:02.999808", "MEAN_MOTION": 15.74960848, "ECCENTRICITY": 0.00011758, "INCLINATION": 42.9993, "RA_OF_ASC_NODE": 116.3347, "ARG_OF_PERICENTER": 249.7767, "MEAN_ANOMALY": 267.0565, "EPHEMERIS_TYPE": 0, "CLASSIFICATION_TYPE": "U", "NORAD_CAT_ID": 66533, "ELEMENT_SET_NO": 999, "REV_AT_EPOCH": 330, "BSTAR": 0.00045515303, "MEAN_MOTION_DOT": 0.00069777, "MEAN_MOTION_DDOT": 0}, "tle": {"line1": "1 66533U 25265T   25336.25003472  .00069777  00000+0  45515-3 0  9993", "line2": "2 66533  42.9993 116.3347 0001175 249.7767 267.0565 15.74960848  3301"}}, "geometry": {"type": "Point", "coordinates": [81.37895645182783, -26.578756183665934]}}, {"type": "Feature", "properties": {"norad_id": 66534, "name": "STARLINK-35976", "group": "last-30-days", "lat": -25.4682794637126, "lon": 83.10801772380957, "alt_km": 346.35357280997505, "timestamp": "2025-12-02T15:49:05.949439+00:00", "meta": {"OBJECT_NAME": "STARLINK-35976", "OBJECT_ID": "2025-265U", "EPOCH": "2025-12-02T06:00:02.999808", "MEAN_MOTION": 15.75044008, "ECCENTRICITY": 0.00016914, "INCLINATION": 42.9997, "RA_OF_ASC_NODE": 116.3304, "ARG_OF_PERICENTER": 259.1776, "MEAN_ANOMALY": 259.4991, "EPHEMERIS_TYPE": 0, "CLASSIFICATION_TYPE": "U", "NORAD_CAT_ID": 66534, "ELEMENT_SET_NO": 999, "REV_AT_EPOCH": 330, "BSTAR": -0.00014997316, "MEAN_MOTION_DOT": -0.00023456, "MEAN_MOTION_DDOT": 0}, "tle": {"line1": "1 66534U 25265U   25336.25003472 -.00023456  00000+0 -14997-3 0  9990", "line2": "2 66534  42.9997 116.3304 0001691 259.1776 259.4991 15.75044008  3307"}}, "geometry": {"type": "Point", "coordinates": [83.10801772380957, -25.4682794637126]}}, {"type": "Feature", "properties": {"norad_id": 66535, "name": "STARLINK-35514", "group": "last-30-days", "lat": -24.335776607222158, "lon": 84.8070571734072, "alt_km": 346.14263141842, "timestamp": "2025-12-02T15:49:05.949449+00:00", "meta": {"OBJECT_NAME": "STARLINK-35514", "OBJECT_ID": "2025-265V", "EPOCH": "2025-12-02T06:00:02.999808", "MEAN_MOTION": 15.7501801, "ECCENTRICITY": 0.00016638, "INCLINATION": 42.9996, "RA_OF_ASC_NODE": 116.3255, "ARG_OF_PERICENTER": 265.6403, "MEAN_ANOMALY": 254.9575, "EPHEMERIS_TYPE": 0, "CLASSIFICATION_TYPE": "U", "NORAD_CAT_ID": 66535, "ELEMENT_SET_NO": 999, "REV_AT_EPOCH": 330, "BSTAR": 0.00024190016, "MEAN_MOTION_DOT": 0.00036809, "MEAN_MOTION_DDOT": 0}, "tle": {"line1": "1 66535U 25265V   25336.25003472  .00036809  00000+0  24190-3 0  9991", "line2": "2 66535  42.9996 116.3255 0001663 265.6403 254.9575 15.75018010  3302"}}, "geometry": {"type": "Point", "coordinates": [84.8070571734072, -24.335776607222158]}}, {"type": "Feature", "properties": {"norad_id": 66536, "name": "STARLINK-35640", "group": "last-30-days", "lat": -23.186879153749153, "lon": 86.47259578973815, "alt_km": 346.06468385806875, "timestamp": "2025-12-02T15:49:05.949459+00:00", "meta": {"OBJECT_NAME": "STARLINK-35640", "OBJECT_ID": "2025-265W", "EPOCH": "2025-12-02T06:00:02.999808", "MEAN_MOTION": 15.75018049, "ECCENTRICITY": 0.00019563, "INCLINATION": 42.9995, "RA_OF_ASC_NODE": 116.3208, "ARG_OF_PERICENTER": 262.0401, "MEAN_ANOMALY": 260.4729, "EPHEMERIS_TYPE": 0, "CLASSIFICATION_TYPE": "U", "NORAD_CAT_ID": 66536, "ELEMENT_SET_NO": 999, "REV_AT_EPOCH": 329, "BSTAR": 0.00018440638, "MEAN_MOTION_DOT": 0.00027917, "MEAN_MOTION_DDOT": 0}, "tle": {"line1": "1 66536U 25265W   25336.25003472  .00027917  00000+0  18441-3 0  9994", "line2": "2 66536  42.9995 116.3208 0001956 262.0401 260.4729 15.75018049  3297"}}, "geometry": {"type": "Point", "coordinates": [86.47259578973815, -23.186879153749153]}}]}